VDNH-80                 
1 44392U 19038G   21276.80463947  .00003222  00000-0  18003-3 0  9996
2 44392  97.5987 241.0964 0019582 301.9375 121.5572 15.14082241123982
D-STAR ONE (LIGHTSAT)   
1 44393U 19038H   21276.86339781  .00003486  00000-0  19497-3 0  9991
2 44393  97.6000 241.0251 0019773 301.8147  58.1159 15.13991288124185
AMGU-1 (AMURSAT)        
1 44394U 19038J   21276.94512476  .00004069  00000-0  22681-3 0  9992
2 44394  97.5986 241.0471 0019981 302.3351  57.5946 15.14003417124193
DOT-1                   
1 44399U 19038P   21276.90694498  .00002579  00000-0  14929-3 0  9998
2 44399  97.6027 240.3554 0022833 305.4300  54.4799 15.12943556124138
SOKRAT                  
1 44404U 19038U   21276.84479833  .00003924  00000-0  21992-3 0  9995
2 44404  97.5990 240.6925 0020063 303.9430  55.9893 15.13833601124162
LUCKY-7                 
1 44406U 19038W   21276.90787136  .00002728  00000-0  15642-3 0  9998
2 44406  97.6019 240.6064 0022515 297.5308  62.3635 15.13244256124143
D-STAR ONE (EXOCONNECT) 
1 44410U 19038AA  21276.87828187  .00004828  00000-0  26258-3 0  9999
2 44410  97.5958 241.0998 0019447 301.1922  58.7403 15.14796366124208
NARSSCUBE-2             
1 44415U 19022E   21276.37196020  .00002379  00000-0  88963-4 0  9997
2 44415  51.6408 278.5199 0010721 208.9390 151.0998 15.31487126120685
KRAKSAT                 
1 44427U 98067QM  21276.82006084  .00075661  00000-0  49826-3 0  9994
2 44427  51.6385 106.8884 0003118 253.0624 229.5944 15.74967699128505
NARSSCUBE-1             
1 44792U 98067QX  21276.88916518  .00092436  00000-0  57056-3 0  9990
2 44792  51.6341 117.2682 0002512 283.9389  76.1331 15.76370818106607
DUCHIFAT-3              
1 44854U 19089C   21276.79516717  .00001383  00000-0  11636-3 0  9998
2 44854  36.9661 179.8548 0009504 296.0328  63.9468 14.99664865 99370
OPS-SAT                 
1 44878U 19092F   21276.45610583  .00003392  00000-0  17534-3 0  9992
2 44878  97.4774  98.4215 0014338 149.3565 210.8508 15.16862429 99200
FLORIPASAT-1            
1 44885U 19093G   21276.76112551  .00000629  00000-0  85137-4 0  9992
2 44885  97.9193 355.1287 0013574 312.2388  47.7664 14.82396603 96817
HUSKYSAT-1 (HO-107)     
1 45119U 19071J   21276.60081892  .00007505  00000-0  21617-3 0  9997
2 45119  51.6405 232.1855 0010514 325.3281  34.7016 15.36722653 93793
G-SAT                   
1 45597U 98067RK  21276.89674072  .00031925  00000-0  36684-3 0  9991
2 45597  51.6383 143.7254 0002394  31.1407 328.9729 15.61733072 81530
QUETZAL-1               
1 45598U 98067RL  21276.88112763  .00045909  00000-0  45655-3 0  9990
2 45598  51.6375 140.6099 0001088 125.1384 234.9714 15.65252147 81502
BY70-2                  
1 45857U 20042B   21276.75433439  .00002122  00000-0  30564-3 0  9991
2 45857  97.9781 351.3677 0010401 217.4004 142.6484 14.77341492 67530
SALSAT                  
1 46495U 20068K   21276.94169557  .00000722  00000-0  57204-4 0  9991
2 46495  97.6990 213.8304 0018986  67.2026 293.1202 15.03576690 55636
NETSAT-4                
1 46504U 20068U   21276.81098377  .00000923  00000-0  74472-4 0  9998
2 46504  97.6975 212.8022 0015484 107.4880 252.8039 15.02254510 55500
NETSAT-3                
1 46505U 20068V   21276.82043177  .00001120  00000-0  89455-4 0  9995
2 46505  97.6968 212.7636 0014057 119.7206 240.5420 15.02228098 55517
NETSAT-1                
1 46506U 20068W   21276.82954244  .00001539  00000-0  12137-3 0  9998
2 46506  97.6940 212.7289 0011032 133.2221 226.9926 15.02194504 55513
NETSAT-2                
1 46507U 20068X   21276.76838571  .00001896  00000-0  14859-3 0  9995
2 46507  97.6921 212.6617 0009356 142.2190 217.9693 15.02164621 55459
BY70-3                  
1 46839U 20079N   21276.86038955  .00007521  00000-0  22664-3 0  9998
2 46839  97.2316 348.5723 0007594 164.4720 307.1757 15.34577103 50822
SPOC                    
1 46921U 98067RR  21276.90378218  .00019970  00000-0  27717-3 0  9991
2 46921  51.6408 154.3055 0002712 131.1432 228.9794 15.57020789 51740
BOBCAT-1                
1 46922U 98067RS  21276.95138378  .00034280  00000-0  41720-3 0  9999
2 46922  51.6411 150.9023 0002642 146.9010 213.2149 15.60196005 51751
NEUTRON-1               
1 46923U 98067RT  21276.92825893  .00019932  00000-0  27804-3 0  9996
2 46923  51.6409 154.4656 0002679 140.5469 219.5718 15.56886818 51774
1998-067RU              
1 46924U 98067RU  21276.92117733  .00085051  00000-0  72886-3 0  9999
2 46924  51.6357 143.8708 0003885 189.7212 170.3710 15.68673755 51883
DESCENT                 
1 46927U 98067RX  21276.93330609  .00020906  00000-0  29094-3 0  9993
2 46927  51.6405 154.4948 0002829 155.7954 204.3171 15.56916185 51688
UVSQ-SAT                
1 47438U 21006AB  21276.82503169  .00002049  00000-0  11809-3 0  9994
2 47438  97.4768 336.0615 0014285  85.3051 274.9812 15.13427263 38441
SOMP2B                  
1 47445U 21006AJ  21276.38840613  .00002245  00000-0  12967-3 0  9995
2 47445  97.4740 335.4798 0013948  90.1068 270.1762 15.13249518 38370
WARP-01                 
1 47924U 98067SA  21276.84460188  .00028221  00000-0  41497-3 0  9996
2 47924  51.6410 160.6276 0005640 149.6948 210.4371 15.55221056 31643
RSP-01                  
1 47925U 98067SB  21275.97652297  .00026802  00000-0  40783-3 0  9994
2 47925  51.6418 165.3433 0002612  98.3149 261.8138 15.54323420 31488
TAUSAT-1                
1 47926U 98067SC  21276.85612753  .00029553  00000-0  42853-3 0  9992
2 47926  51.6405 159.9596 0003417  98.6698 261.4680 15.55586243 31629
TSURU                   
1 47927U 98067SD  21276.38582345  .00018824  00000-0  29314-3 0  9990
2 47927  51.6416 163.5764 0002618  95.8756 264.2533 15.53917250 31549
STARS-EC                
1 47928U 98067SE  21276.85281466  .00031839  00000-0  46586-3 0  9994
2 47928  51.6412 160.6856 0006229 152.8944 207.2373 15.55287169 31608
MAYA-2                  
1 47929U 98067SF  21276.70353620  .00018988  00000-0  29530-3 0  9991
2 47929  51.6418 161.9474 0002635  94.7191 265.4100 15.53947407 31554
HIROGARI (OPUSAT-II)    
1 47930U 98067SG  21276.86853763  .00031842  00000-0  45596-3 0  9997
2 47930  51.6413 160.0529 0002434 103.8248 256.3014 15.55890183 31636
GUARANISAT-1            
1 47931U 98067SH  21276.05848371  .00023085  00000-0  35723-3 0  9999
2 47931  51.6417 165.1425 0002677  91.0102 269.1195 15.53949545 31499
DIY-1 (ARDUIQUBE)       
1 47963U 21022AH  21276.68730053  .00005309  00000-0  34908-3 0  9990
2 47963  97.5465 177.0803 0018068 298.5276  61.4133 15.07874080 28205
